[{"OBJECT_NAME":"STARLINK-5582","OBJECT_ID":"2023-078L","EPOCH":"2026-03-09T22:42:25.553376","MEAN_MOTION":14.98320574,"ECCENTRICITY":0.00027923,"INCLINATION":70.0014,"RA_OF_ASC_NODE":344.0184,"ARG_OF_PERICENTER":266.0709,"MEAN_ANOMALY":94.0131,"EPHEMERIS_TYPE":0,"CLASSIFICATION_TYPE":"U","NORAD_CAT_ID":56777,"ELEMENT_SET_NO":999,"REV_AT_EPOCH":15271,"BSTAR":-0.00012872112,"MEAN_MOTION_DOT":-1.628e-5,"MEAN_MOTION_DDOT":0},{"OBJECT_NAME":"CZ-6A DEB","OBJECT_ID":"2022-151CZ","EPOCH":"2026-03-09T17:45:53.210880","MEAN_MOTION":14.74921147,"ECCENTRICITY":0.01056164,"INCLINATION":98.7155,"RA_OF_ASC_NODE":150.3002,"ARG_OF_PERICENTER":236.2203,"MEAN_ANOMALY":122.891,"EPHEMERIS_TYPE":0,"CLASSIFICATION_TYPE":"U","NORAD_CAT_ID":54354,"ELEMENT_SET_NO":999,"REV_AT_EPOCH":17564,"BSTAR":0.0025923668,"MEAN_MOTION_DOT":0.00019034,"MEAN_MOTION_DDOT":0}]
